
# Worst residual: 11.45 km
# MJD 59666.000000 (2022 Mar 28  0:00)
NORAD 30580 = 2007-004A = THEMIS A
1 30580U 07004A   22087.49919926  .00000000  00000-0  00000-0 0 15363
2 30580 015.1960 352.7872 8385908 150.2007 312.3277 00.87844339    01

# Worst residual: 11.14 km
# MJD 59667.000000 (2022 Mar 29  0:00)
NORAD 30580 = 2007-004A = THEMIS A
1 30580U 07004A   22088.49919926  .00000000  00000-0  00000-0 0 15364
2 30580 015.1814 352.7129 8385599 150.3839 268.4832 00.87831656    00

# Worst residual: 13.97 km
# MJD 59668.000000 (2022 Mar 30  0:00)
NORAD 30580 = 2007-004A = THEMIS A
1 30580U 07004A   22089.49919926  .00000000  00000-0  00000-0 0 15365
2 30580 015.1687 352.6310 8385640 150.5736 224.6560 00.87836054    03

# Worst residual: 8.29 km
# MJD 59669.000000 (2022 Mar 31  0:00)
NORAD 30580 = 2007-004A = THEMIS A
1 30580U 07004A   22090.49919926  .00000000  00000-0  00000-0 0 15367
2 30580 015.1598 352.5430 8385260 150.7619 180.8358 00.87846186    01

# Worst residual: 11.91 km
# MJD 59670.000000 (2022 Apr  1  0:00)
NORAD 30580 = 2007-004A = THEMIS A
1 30580U 07004A   22091.49919926  .00000000  00000-0  00000-0 0 15368
2 30580 015.1532 352.4479 8383316 150.9554 137.0186 00.87842992    05

# Worst residual: 10.42 km
# MJD 59671.000000 (2022 Apr  2  0:00)
NORAD 30580 = 2007-004A = THEMIS A
1 30580U 07004A   22092.49919926  .00000000  00000-0  00000-0 0 15369
2 30580 015.1443 352.3602 8382596 151.1380 093.2168 00.87845755    05
